OBJECT_NAME,OBJECT_ID,EPOCH,MEAN_MOTION,ECCENTRICITY,INCLINATION,RA_OF_ASC_NODE,ARG_OF_PERICENTER,MEAN_ANOMALY,EPHEMERIS_TYPE,CLASSIFICATION_TYPE,NORAD_CAT_ID,ELEMENT_SET_NO,REV_AT_EPOCH,BSTAR,MEAN_MOTION_DOT,MEAN_MOTION_DDOT
SL-12 R/B(2),1985-042D,2026-07-18T08:18:00.465408,14.22011301,.00373702,71.1068,171.6849,281.5712,247.4621,0,U,15772,999,13296,.52871775E-4,.7E-6,0
SL-14 R/B,1985-069B,2026-07-18T16:07:01.092288,14.86536436,.0020206,82.5258,261.7568,116.5352,243.7939,0,U,15945,999,19229,.18065E-4,.185E-5,0
SL-16 R/B,1985-097B,2026-07-18T13:41:07.592064,14.16614396,.0005793,71.0005,225.0070,44.7326,126.0378,0,U,16182,999,10576,.14316E-3,.238E-5,0
SL-14 R/B,1986-006B,2026-07-18T19:32:04.713216,14.86969767,.0075776,82.5284,136.3528,196.7490,163.1225,0,U,16496,999,16869,.21403E-4,.229E-5,0
COSMOS 1743,1986-034A,2026-07-18T17:27:54.160416,15.69887978,.0005533,82.5274,295.1252,165.7831,194.3587,0,U,16719,999,20073,.29797E-3,.35738E-3,0
SL-14 R/B,1986-046B,2026-07-18T19:23:15.533952,14.85692119,.0023858,82.4840,316.2976,151.3732,208.8800,0,U,16792,999,14587,.25403E-4,.246E-5,0
SL-14 R/B,1986-055B,2026-07-18T21:16:22.932192,14.85741658,.0017362,82.5206,3.3254,256.9911,271.4571,0,U,16882,999,13884,.21871E-4,.214E-5,0
AJISAI (EGS),1986-061A,2026-07-18T20:15:21.221568,12.44516681,.001108,50.0103,50.0516,261.2164,111.3542,0,U,16908,999,48433,.73063E-5,-.96E-6,0
SL-14 R/B,1987-024B,2026-07-18T19:02:43.141632,14.86233172,.0018156,82.5302,329.5422,181.7018,178.4140,0,U,17567,999,10760,.22291E-4,.221E-5,0
COSMOS 1833,1987-027A,2026-07-18T21:25:23.848032,14.13067407,.0024515,70.9213,50.2287,2.7728,357.3525,0,U,17589,999,2885,.35205E-4,.18E-6,0
SL-16 R/B,1987-027B,2026-07-18T20:06:25.902720,14.17174860,.0007188,71.0036,0.1294,277.9978,82.0330,0,U,17590,999,3392,.12639E-3,.207E-5,0
SL-14 R/B,1987-038B,2026-07-18T15:41:42.383328,14.85462633,.0020879,82.5015,173.4323,91.6436,268.7172,0,U,17912,999,9867,.19839E-4,.196E-5,0
COSMOS 1844,1987-041A,2026-07-18T18:53:02.236416,14.14581281,.0031087,70.8999,117.6545,190.1174,169.9326,0,U,17973,999,2212,.17161E-4,-.15E-6,0
SL-14 R/B,1987-055B,2026-07-18T19:26:01.993056,14.85728161,.0019213,82.4969,225.4173,302.3533,57.5823,0,U,18153,999,8940,.17257E-4,.174E-5,0
COSMOS 1867,1987-060A,2026-07-18T17:02:52.690848,14.31518720,.001724,65.0117,299.7759,281.9861,77.9291,0,U,18187,999,3869,.1903E-4,-.5E-6,0
SL-14 R/B,1988-001B,2026-07-18T17:55:11.773056,14.85627938,.0018441,82.5117,72.0806,160.2499,199.9436,0,U,18749,999,6148,.16644E-4,.169E-5,0
COSMOS 1933,1988-020A,2026-07-18T19:01:58.306080,15.18903003,.0005923,82.5140,121.1348,98.2773,261.9133,0,U,18958,999,7012,.97171E-4,.2059E-4,0
SL-3 R/B,1988-032B,2026-07-18T21:19:10.983648,15.21047399,.0026797,97.5278,182.9050,133.4055,226.9418,0,U,19046,999,7204,.98667E-4,.2139E-4,0
SL-16 R/B,1988-039B,2026-07-18T14:49:03.925056,14.19631498,.002043,71.0142,151.6988,143.8598,216.3913,0,U,19120,999,97696,.74582E-4,.11E-5,0
COSMOS 1953,1988-050A,2026-07-18T11:21:15.450336,15.30362961,.00111838,82.5068,26.4710,29.4528,330.7340,0,U,19210,999,5777,.13630778E-3,.4043E-4,0
SL-8 R/B,1988-053B,2026-07-18T07:03:33.107616,14.38979213,.00198471,74.0454,231.7163,16.3577,63.5796,0,U,19257,999,99538,.41830543E-4,.103E-5,0
COSMOS 1975,1988-093A,2026-07-18T19:38:43.476000,15.29688865,.0012398,82.5208,345.8729,71.1955,289.0629,0,U,19573,999,3944,.1399E-3,.4066E-4,0
SL-14 R/B,1988-093B,2026-07-18T17:37:44.395104,14.85761246,.0019727,82.5313,279.0295,328.1733,149.0758,0,U,19574,999,2047,.17863E-4,.18E-5,0
SL-16 R/B,1988-102B,2026-07-18T18:58:34.834080,14.16166899,.0014098,70.9973,235.6415,179.8487,180.2643,0,U,19650,999,94545,.69905E-4,.91E-6,0
INTERCOSMOS 24,1989-080A,2026-07-18T18:48:36.159840,12.59692831,.1187013,82.6054,19.0779,348.6159,9.0084,0,U,20261,999,68330,.29546E-4,.112E-5,0
SL-14 R/B,1989-080C,2026-07-18T16:23:16.827360,12.50578861,.1228826,82.5930,89.0709,245.3107,101.5317,0,U,20262,999,67652,.14154E-4,.51E-6,0
DELTA 1 R/B,1989-089B,2026-07-18T19:24:22.053312,14.50748924,.0070576,97.0637,26.3067,68.8071,292.0649,0,U,20323,999,91474,.34049E-4,.103E-5,0
ARIANE 40 R/B,1990-005H,2026-07-18T17:32:57.045984,14.39941618,.0010506,98.2941,256.3636,163.6868,196.4661,0,U,20443,999,91166,.38102E-4,.78E-6,0
DELTA 2 R/B(1),1990-008B,2026-07-18T13:45:59.859936,15.74164493,.0057119,35.5998,24.8567,48.2970,312.2639,0,U,20453,999,94664,.48844E-3,.81373E-3,0
COSMOS 2058,1990-010A,2026-07-18T16:49:18.899616,15.12168441,.0008198,82.4675,278.2742,235.1988,124.8472,0,U,20465,999,96203,.10522E-3,.1845E-4,0
SL-14 R/B,1990-010B,2026-07-18T19:09:48.457728,14.83664158,.0018584,82.5037,144.2591,224.5176,135.4547,0,U,20466,999,94792,.1933E-4,.184E-5,0
